ORBCOMM FM05            
1 25117U 97084F   25341.25540919  .00003345  00000+0  95642-3 0  9997
2 25117  45.0137 256.6869 0003497 358.9529   1.1315 14.46678595465667
ORBCOMM FM06            
1 25118U 97084G   25341.18930722  .00003226  00000+0  92062-3 0  9996
2 25118  45.0131 256.5358 0002444 353.0224 155.4884 14.46839164466579
ORBCOMM FM07            
1 25119U 97084H   25341.03514145  .00003043  00000+0  87059-3 0  9995
2 25119  45.0126 258.0279 0004338 356.6763   3.4060 14.46848415466548
ORBCOMM FM03            
1 25158U 98007B   25341.17989623  .00002254  00000+0  82629-3 0  9997
2 25158 107.9636 131.0666 0046324 303.9325  55.7416 14.35002195448859
ORBCOMM FM04            
1 25159U 98007C   25341.20426109  .00002387  00000+0  86960-3 0  9996
2 25159 107.9627 134.4553 0042199 301.1079  58.5925 14.35247043449045
ORBCOMM FM17            
1 25413U 98046A   25341.22982786  .00001617  00000+0  60555-3 0  9999
2 25413  44.9924 160.6981 0002402  15.5223 344.5698 14.35516802428037
ORBCOMM FM18            
1 25414U 98046B   25341.31304818  .00002798  00000+0  94126-3 0  9996
2 25414  44.9928  72.9928 0003060  94.8152 265.3046 14.39129088429184
ORBCOMM FM19            
1 25415U 98046C   25341.28876209  .00002637  00000+0  89288-3 0  9996
2 25415  44.9935  75.3724 0001833  97.9591 295.2821 14.38948111429134
